{
  "type": "FeatureCollection",
  "crs": {
    "type": "name",
    "properties": {
      "name": "urn:ogc:def:crs:EPSG::3857"
    }
  },
  "features": [
    {
      "type": "Feature",
      "properties": {
        "name": "Alaska Maritime Boundary Polygon",
        "description": "EPSG:3857 Web Mercator coordinates"
      },
      "geometry": {
        "type": "Polygon",
        "coordinates": [
          [
            [-15135712.662, 7231098.426],
            [-16026716.235, 7710324.891],
            [-16137955.346, 7719441.775],
            [-17593719.648, 7009068.165],
            [-18827392.998, 6446275.841],
            [-20037508.343, 6446275.841],
            [18912309.037, 6446275.841],
            [18912309.037, 7009068.165],
            [20037508.343, 8399737.889],
            [-18827392.998, 9449623.888],
            [-18827392.998, 11547923.118],
            [-15700147.893, 11547923.118],
            [-15700147.893, 11547923.118],
            [-17456389.458, 10908301.446],
            [-18593741.664, 9995736.632],
            [-18372679.216, 9664770.526],
            [-18717134.663, 9483558.179],
            [-18428440.105, 8944271.91],
            [-18550198.329, 8673191.406],
            [-18149148.217, 8364110.902],
            [-18149148.217, 7231098.426],
            [-17148148.217, 7710324.891],
            [-16249147.893, 8130301.446],
            [-15581052.231, 8139418.33],
            [-15581052.231, 7710324.891],
            [-14804147.893, 7364648.071],
            [-14804147.893, 7364648.071],
            [-15135712.662, 7231098.426]
          ]
        ]
      }
    }
  ]
}
