{
  "type": "FeatureCollection",
  "crs": {
    "type": "name",
    "properties": {
      "name": "urn:ogc:def:crs:EPSG::3857"
    }
  },
  "features": [
    {
      "type": "Feature",
      "properties": {
        "name": "Maritime Boundary Polygon",
        "description": "EPSG:3857 Web Mercator coordinates"
      },
      "geometry": {
        "type": "Polygon",
        "coordinates": [
          [
            [-7340032.462, 5348118.844],
            [-7493264.064, 5513823.413],
            [-7759559.254, 5336561.153],
            [-7759559.254, 5008055.262],
            [-8050131.392, 4931709.678],
            [-8127678.671, 4884374.826],
            [-8127678.671, 4858693.184],
            [-8204151.951, 4856852.264],
            [-8402022.951, 4439124.628],
            [-8370789.512, 4324149.926],
            [-8370789.512, 4180327.264],
            [-8966954.477, 3757683.718],
            [-9021853.598, 3579026.208],
            [-8871838.944, 3047924.718],
            [-9045009.208, 2798621.064],
            [-9108649.364, 2794072.312],
            [-9143882.808, 2810753.954],
            [-9143882.808, 2835301.394],
            [-9132096.644, 2837381.584],
            [-9077242.644, 2879925.824],
            [-9065862.364, 2889647.354],
            [-9077649.364, 2936754.604],
            [-9173742.064, 3029527.854],
            [-9254864.364, 3236840.944],
            [-9301104.344, 3368654.234],
            [-9364577.624, 3455116.814],
            [-9465605.904, 3418009.564],
            [-9709839.024, 3514631.954],
            [-9852852.834, 3514631.954],
            [-9908965.794, 3366574.044],
            [-10018965.794, 3366574.044],
            [-10471661.254, 3420089.754],
            [-10694771.904, 3280671.504],
            [-10804984.744, 3152858.224],
            [-10804666.364, 2989527.854],
            [-10813575.664, 2982899.114],
            [-13047137.054, 3868124.628],
            [-13077557.954, 3868124.628],
            [-13192771.904, 3893671.504],
            [-13355984.744, 3932858.224],
            [-13437666.364, 4027074.734],
            [-13489666.364, 4220527.854],
            [-13820575.664, 4752899.114],
            [-13870137.054, 4879124.628],
            [-13877557.954, 4942124.628],
            [-13895771.904, 5250671.504],
            [-13844984.744, 5782858.224],
            [-13916666.364, 6180527.854],
            [-14253575.664, 6099899.114],
            [-14693137.054, 6099124.628],
            [-14551557.954, 4542124.628],
            [-13820575.664, 3368899.114],
            [-13477557.954, 3579124.628],
            [-13192771.904, 3757671.504],
            [-13077557.954, 3868124.628],
            [-13047137.054, 3868124.628],
            [-10813575.664, 2982899.114],
            [-10804666.364, 2989527.854],
            [-10583261.544, 2989517.054],
            [-10583261.544, 3029915.024],
            [-9364570.524, 3047912.114],
            [-9254846.494, 2726814.474],
            [-8831938.944, 2726814.474],
            [-8831938.944, 2936754.604],
            [-8777242.644, 3152754.604],
            [-8231678.671, 3579026.208],
            [-7098032.462, 4851118.844],
            [-7320032.462, 5258118.844],
            [-7340032.462, 5348118.844]
          ]
        ]
      }
    }
  ]
}
